id;id_fantoir;numero;rep;nom_voie;code_postal;code_insee;nom_commune;code_insee_ancienne_commune;nom_ancienne_commune;x;y;lon;lat;type_position;alias;nom_ld;libelle_acheminement;nom_afnor;source_position;source_nom_voie;certification_commune;cad_parcelles;geo
75113_9928_00007;751139928;7;;Rue Vulpian;75013;75113;Paris 13e Arrondissement;;;652042.01;6859298.98;2.346689;48.831961;parcelle;;;PARIS;RUE VULPIAN;commune;commune;1;;48.831961, 2.346689
75113_9928_00015;751139928;15;;Rue Vulpian;75013;75113;Paris 13e Arrondissement;;;652015.93;6859217.36;2.346343;48.831225;parcelle;;;PARIS;RUE VULPIAN;commune;commune;1;;48.831225, 2.346343
75113_9928_00016;751139928;16;;Rue Vulpian;75013;75113;Paris 13e Arrondissement;;;652017.48;6859271.94;2.346358;48.831716;parcelle;;;PARIS;RUE VULPIAN;commune;commune;1;;48.831716, 2.346358
75113_9928_00021;751139928;21;;Rue Vulpian;75013;75113;Paris 13e Arrondissement;;;652003.95;6859179.76;2.346184;48.830886;parcelle;;;PARIS;RUE VULPIAN;commune;commune;1;;48.830886, 2.346184
75113_6973_00023;751136973;23;;Rue Oudry;75013;75113;Paris 13e Arrondissement;;;652719.55;6859843.73;2.355858;48.83691;parcelle;;;PARIS;RUE OUDRY;commune;commune;1;;48.83691, 2.355858
75113_0656_00004;751130656;4;;Rue du Banquier;75013;75113;Paris 13e Arrondissement;;;652870.9;6859778.56;2.357927;48.836335;parcelle;;;PARIS;RUE DU BANQUIER;commune;commune;1;;48.836335, 2.357927
75113_0656_00009;751130656;9;;Rue du Banquier;75013;75113;Paris 13e Arrondissement;;;652817.61;6859733.4;2.357206;48.835925;parcelle;;;PARIS;RUE DU BANQUIER;commune;commune;1;;48.835925, 2.357206
75113_0656_00022;751130656;22;;Rue du Banquier;75013;75113;Paris 13e Arrondissement;;;652708.82;6859679.13;2.35573;48.835429;parcelle;;;PARIS;RUE DU BANQUIER;commune;commune;1;;48.835429, 2.35573
75113_0656_00023;751130656;23;;Rue du Banquier;75013;75113;Paris 13e Arrondissement;;;652718.8;6859670.6;2.355867;48.835353;parcelle;;;PARIS;RUE DU BANQUIER;commune;commune;1;;48.835353, 2.355867
75113_0656_00038;751130656;38;;Rue du Banquier;75013;75113;Paris 13e Arrondissement;;;652609.35;6859606.89;2.354383;48.834772;parcelle;;;PARIS;RUE DU BANQUIER;commune;commune;1;;48.834772, 2.354383
75113_0656_00042;751130656;42;;Rue du Banquier;75013;75113;Paris 13e Arrondissement;;;652585.73;6859591.62;2.354063;48.834633;parcelle;;;PARIS;RUE DU BANQUIER;commune;commune;1;;48.834633, 2.354063
75113_8115_00003;751138115;3;;Rue de la Reine Blanche;75013;75113;Paris 13e Arrondissement;;;652641.87;6859859.26;2.354798;48.837044;parcelle;;;PARIS;RUE DE LA REINE BLANCHE;commune;commune;1;;48.837044, 2.354798
75113_8115_00023;751138115;23;;Rue de la Reine Blanche;75013;75113;Paris 13e Arrondissement;;;652541.63;6859772.9;2.353442;48.83626;parcelle;;;PARIS;RUE DE LA REINE BLANCHE;commune;commune;1;;48.83626, 2.353442
75113_8115_00028;751138115;28;;Rue de la Reine Blanche;75013;75113;Paris 13e Arrondissement;;;652520.62;6859770.29;2.353156;48.836235;parcelle;;;PARIS;RUE DE LA REINE BLANCHE;commune;commune;1;;48.836235, 2.353156
75113_8115_00029;751138115;29;;Rue de la Reine Blanche;75013;75113;Paris 13e Arrondissement;;;652501.93;6859738.53;2.352905;48.835948;parcelle;;;PARIS;RUE DE LA REINE BLANCHE;commune;commune;1;;48.835948, 2.352905
75113_9001_00006;751139001;6;;Avenue de la Soeur Rosalie;75013;75113;Paris 13e Arrondissement;;;652577.92;6859300.69;2.353989;48.832016;parcelle;;;PARIS;AVENUE DE LA SOEUR ROSALIE;commune;commune;1;;48.832016, 2.353989
75113_9001_00013;751139001;13;;Avenue de la Soeur Rosalie;75013;75113;Paris 13e Arrondissement;;;652508.75;6859289.91;2.353048;48.831914;parcelle;;;PARIS;AVENUE DE LA SOEUR ROSALIE;commune;commune;1;;48.831914, 2.353048
75113_4211_00005;751134211;5;;Rue des Gobelins;75013;75113;Paris 13e Arrondissement;;;652430.2;6859719.55;2.35193;48.835772;parcelle;;;PARIS;RUE DES GOBELINS;commune;commune;1;;48.835772, 2.35193
75113_4211_00010;751134211;10;;Rue des Gobelins;75013;75113;Paris 13e Arrondissement;;;652399.99;6859731.59;2.351517;48.835878;parcelle;;;PARIS;RUE DES GOBELINS;commune;commune;1;;48.835878, 2.351517
75113_8424_00003;751138424;3;;Rue Rubens;75013;75113;Paris 13e Arrondissement;;;652673.77;6859603.25;2.355261;48.834744;parcelle;;;PARIS;RUE RUBENS;commune;commune;1;;48.834744, 2.355261
75113_8424_00008;751138424;8;;Rue Rubens;75013;75113;Paris 13e Arrondissement;;;652662.32;6859576.88;2.355108;48.834506;parcelle;;;PARIS;RUE RUBENS;commune;commune;1;;48.834506, 2.355108
75113_8690_00045;751138690;45;;Boulevard Saint-Marcel;75013;75113;Paris 13e Arrondissement;;;652773.39;6859973.83;2.356577;48.838084;parcelle;;;PARIS;BOULEVARD SAINT MARCEL;commune;commune;1;;48.838084, 2.356577
75113_8690_00053;751138690;53;;Boulevard Saint-Marcel;75013;75113;Paris 13e Arrondissement;;;652702.43;6859940.38;2.355614;48.837778;parcelle;;;PARIS;BOULEVARD SAINT MARCEL;commune;commune;1;;48.837778, 2.355614
75113_8690_00057;751138690;57;;Boulevard Saint-Marcel;75013;75113;Paris 13e Arrondissement;;;652657.63;6859919.18;2.355006;48.837584;parcelle;;;PARIS;BOULEVARD SAINT MARCEL;commune;commune;1;;48.837584, 2.355006
75113_2416_00008;751132416;8;;Rue Coypel;75013;75113;Paris 13e Arrondissement;;;652725.51;6859439.81;2.355984;48.833278;parcelle;;;PARIS;RUE COYPEL;commune;commune;1;;48.833278, 2.355984
75113_5125_00005;751135125;5;;Rue du Jura;75013;75113;Paris 13e Arrondissement;;;652738.21;6859925.53;2.356103;48.837647;parcelle;;;PARIS;RUE DU JURA;commune;commune;1;;48.837647, 2.356103
75113_5125_00012;751135125;12;;Rue du Jura;75013;75113;Paris 13e Arrondissement;;;652728.66;6859871.01;2.355979;48.837156;parcelle;;;PARIS;RUE DU JURA;commune;commune;1;;48.837156, 2.355979
75113_5125_00015;751135125;15;;Rue du Jura;75013;75113;Paris 13e Arrondissement;;;652743.35;6859862.99;2.35618;48.837085;parcelle;;;PARIS;RUE DU JURA;commune;commune;1;;48.837085, 2.35618
75113_2469_00021;751132469;21;;Rue de Croulebarbe;75013;75113;Paris 13e Arrondissement;;;652435.55;6859475.88;2.35203;48.833581;parcelle;;;PARIS;RUE DE CROULEBARBE;commune;commune;1;;48.833581, 2.35203
75113_2469_00026;751132469;26;;Rue de Croulebarbe;75013;75113;Paris 13e Arrondissement;;;652411.65;6859443.83;2.351708;48.833291;parcelle;;;PARIS;RUE DE CROULEBARBE;commune;commune;1;;48.833291, 2.351708
75113_2469_00033;751132469;33;;Rue de Croulebarbe;75013;75113;Paris 13e Arrondissement;;;652383.22;6859388.68;2.351327;48.832793;parcelle;;;PARIS;RUE DE CROULEBARBE;commune;commune;1;;48.832793, 2.351327
75113_2469_00041;751132469;41;;Rue de Croulebarbe;75013;75113;Paris 13e Arrondissement;;;652325.8;6859333.45;2.350551;48.832292;parcelle;;;PARIS;RUE DE CROULEBARBE;commune;commune;1;;48.832292, 2.350551
75113_2469_00046;751132469;46;;Rue de Croulebarbe;75013;75113;Paris 13e Arrondissement;;;652261.45;6859309.62;2.349677;48.832073;parcelle;;;PARIS;RUE DE CROULEBARBE;commune;commune;1;;48.832073, 2.349677
75113_2469_00055;751132469;55;;Rue de Croulebarbe;75013;75113;Paris 13e Arrondissement;;;652255.72;6859273.98;2.349603;48.831752;parcelle;;;PARIS;RUE DE CROULEBARBE;commune;commune;1;;48.831752, 2.349603
75113_2469_00056;751132469;56;;Rue de Croulebarbe;75013;75113;Paris 13e Arrondissement;;;652213.06;6859263.88;2.349023;48.831658;parcelle;;;PARIS;RUE DE CROULEBARBE;commune;commune;1;;48.831658, 2.349023
75113_2469_00061;751132469;61;;Rue de Croulebarbe;75013;75113;Paris 13e Arrondissement;;;652213.39;6859233.18;2.349031;48.831382;parcelle;;;PARIS;RUE DE CROULEBARBE;commune;commune;1;;48.831382, 2.349031
75113_2469_00057_b;751132469;57;b;Rue de Croulebarbe;75013;75113;Paris 13e Arrondissement;;;652236.04;6859255.12;2.349337;48.831581;parcelle;;;PARIS;RUE DE CROULEBARBE;commune;commune;1;;48.831581, 2.349337
75113_0875_00001;751130875;1;;Rue Berbier du Mets;75013;75113;Paris 13e Arrondissement;;;652375.2;6859448.68;2.351211;48.833332;parcelle;;;PARIS;RUE BERBIER DU METS;commune;commune;1;;48.833332, 2.351211
75113_0875_00007;751130875;7;;Rue Berbier du Mets;75013;75113;Paris 13e Arrondissement;;;652383.72;6859556.92;2.351315;48.834306;parcelle;;;PARIS;RUE BERBIER DU METS;commune;commune;1;;48.834306, 2.351315
75113_0875_00018;751130875;18;;Rue Berbier du Mets;75013;75113;Paris 13e Arrondissement;;;652316.04;6859672.79;2.35038;48.835343;parcelle;;;PARIS;RUE BERBIER DU METS;commune;commune;1;;48.835343, 2.35038
75113_0875_00021;751130875;21;;Rue Berbier du Mets;75013;75113;Paris 13e Arrondissement;;;652275.43;6859706.7;2.349823;48.835645;parcelle;;;PARIS;RUE BERBIER DU METS;commune;commune;1;;48.835645, 2.349823
75113_0875_00023;751130875;23;;Rue Berbier du Mets;75013;75113;Paris 13e Arrondissement;;;652267.9;6859718.55;2.349719;48.835751;parcelle;;;PARIS;RUE BERBIER DU METS;commune;commune;1;;48.835751, 2.349719
75113_0875_00028;751130875;28;;Rue Berbier du Mets;75013;75113;Paris 13e Arrondissement;;;652280.59;6859736.24;2.34989;48.835911;parcelle;;;PARIS;RUE BERBIER DU METS;commune;commune;1;;48.835911, 2.34989
75113_9173_00009;751139173;9;;Rue des Tanneries;75013;75113;Paris 13e Arrondissement;;;651985.08;6859499.05;2.345891;48.833756;parcelle;;;PARIS;RUE DES TANNERIES;commune;commune;1;;48.833756, 2.345891
75113_9173_00010;751139173;10;;Rue des Tanneries;75013;75113;Paris 13e Arrondissement;;;651972.38;6859499.27;2.345718;48.833757;parcelle;;;PARIS;RUE DES TANNERIES;commune;commune;1;;48.833757, 2.345718
75113_9940_00007;751139940;7;;Rue des Wallons;75013;75113;Paris 13e Arrondissement;;;652997.65;6860020.38;2.359627;48.838519;parcelle;;;PARIS;RUE DES WALLONS;commune;commune;1;;48.838519, 2.359627
75113_4755_00010;751134755;10;;Place d'Italie;75013;75113;Paris 13e Arrondissement;;;652594.24;6859240.4;2.354218;48.831475;parcelle;;;PARIS;PLACE D ITALIE;commune;commune;1;;48.831475, 2.354218
75113_5433_00001;751135433;1;;Rue Le Brun;75013;75113;Paris 13e Arrondissement;;;652686.12;6859928.73;2.355393;48.837672;parcelle;;;PARIS;RUE LE BRUN;commune;commune;1;;48.837672, 2.355393
75113_5433_00027;751135433;27;;Rue Le Brun;75013;75113;Paris 13e Arrondissement;;;652588.46;6859673.67;2.354091;48.835371;parcelle;;;PARIS;RUE LE BRUN;commune;commune;1;;48.835371, 2.354091
75113_5433_00035;751135433;35;;Rue Le Brun;75013;75113;Paris 13e Arrondissement;;;652556.33;6859640.79;2.353657;48.835073;parcelle;;;PARIS;RUE LE BRUN;commune;commune;1;;48.835073, 2.353657
75113_5433_00042;751135433;42;;Rue Le Brun;75013;75113;Paris 13e Arrondissement;;;652540.83;6859648.37;2.353445;48.83514;parcelle;;;PARIS;RUE LE BRUN;commune;commune;1;;48.83514, 2.353445
75113_0403_00003;751130403;3;;Square Arago;75013;75113;Paris 13e Arrondissement;;;651947.56;6859675.5;2.34536;48.83534;parcelle;;;PARIS;SQUARE ARAGO;commune;commune;1;;48.83534, 2.34536
75113_5061_00008;751135061;8;;Rue Jules Breton;75013;75113;Paris 13e Arrondissement;;;652885.01;6860016.07;2.358093;48.838472;parcelle;;;PARIS;RUE JULES BRETON;commune;commune;1;;48.838472, 2.358093
75113_5061_00009;751135061;9;;Rue Jules Breton;75013;75113;Paris 13e Arrondissement;;;652869.03;6860009.08;2.357876;48.838408;parcelle;;;PARIS;RUE JULES BRETON;commune;commune;1;;48.838408, 2.357876
75113_0028_00011;751130028;11;;Rue Abel Hovelacque;75013;75113;Paris 13e Arrondissement;;;652519.26;6859353.32;2.353184;48.832485;parcelle;;;PARIS;RUE ABEL HOVELACQUE;commune;commune;1;;48.832485, 2.353184
75113_0028_00014;751130028;14;;Rue Abel Hovelacque;75013;75113;Paris 13e Arrondissement;;;652523.94;6859387.53;2.353244;48.832793;parcelle;;;PARIS;RUE ABEL HOVELACQUE;commune;commune;1;;48.832793, 2.353244
75113_0028_00022;751130028;22;;Rue Abel Hovelacque;75013;75113;Paris 13e Arrondissement;;;652502.04;6859349.12;2.35295;48.832446;parcelle;;;PARIS;RUE ABEL HOVELACQUE;commune;commune;1;;48.832446, 2.35295
75113_0028_00029;751130028;29;;Rue Abel Hovelacque;75013;75113;Paris 13e Arrondissement;;;652489.87;6859216.57;2.352799;48.831253;parcelle;;;PARIS;RUE ABEL HOVELACQUE;commune;commune;1;;48.831253, 2.352799
75113_0028_00030;751130028;30;;Rue Abel Hovelacque;75013;75113;Paris 13e Arrondissement;;;652482.97;6859296.57;2.352696;48.831972;parcelle;;;PARIS;RUE ABEL HOVELACQUE;commune;commune;1;;48.831972, 2.352696
75113_1313_00068;751131313;68;;Rue Broca;75013;75113;Paris 13e Arrondissement;;;652063.46;6859868.69;2.346917;48.837086;parcelle;;;PARIS;RUE BROCA;commune;commune;1;;48.837086, 2.346917
75113_3219_00013;751133219;13;;Rue Emile Deslandres;75013;75113;Paris 13e Arrondissement;;;652253.76;6859588.46;2.349541;48.83458;parcelle;;;PARIS;RUE EMILE DESLANDRES;commune;commune;1;;48.83458, 2.349541
75113_9702_00007;751139702;7;;Rue Véronèse;75013;75113;Paris 13e Arrondissement;;;652642.14;6859487.31;2.354843;48.833699;parcelle;;;PARIS;RUE VERONESE;commune;commune;1;;48.833699, 2.354843
75113_3128_00003;751133128;3;;Rue Edmond Gondinet;75013;75113;Paris 13e Arrondissement;;;652130.57;6859160.25;2.347911;48.83072;parcelle;;;PARIS;RUE EDMOND GONDINET;commune;commune;1;;48.83072, 2.347911
75113_8633_00011;751138633;11;;Rue Saint-Hippolyte;75013;75113;Paris 13e Arrondissement;;;652091.29;6859745.58;2.34731;48.835981;parcelle;;;PARIS;RUE SAINT HIPPOLYTE;commune;commune;1;;48.835981, 2.34731
75113_8633_00012;751138633;12;;Rue Saint-Hippolyte;75013;75113;Paris 13e Arrondissement;;;652116.42;6859757.61;2.347651;48.836091;parcelle;;;PARIS;RUE SAINT HIPPOLYTE;commune;commune;1;;48.836091, 2.347651
75113_8633_00022;751138633;22;;Rue Saint-Hippolyte;75013;75113;Paris 13e Arrondissement;;;652062.62;6859767.62;2.346917;48.836177;parcelle;;;PARIS;RUE SAINT HIPPOLYTE;commune;commune;1;;48.836177, 2.346917
75113_8633_00030;751138633;30;;Rue Saint-Hippolyte;75013;75113;Paris 13e Arrondissement;;;651989.8;6859775.67;2.345924;48.836244;parcelle;;;PARIS;RUE SAINT HIPPOLYTE;commune;commune;1;;48.836244, 2.345924
75113_8633_00032;751138633;32;;Rue Saint-Hippolyte;75013;75113;Paris 13e Arrondissement;;;651971.04;6859779.83;2.345668;48.83628;parcelle;;;PARIS;RUE SAINT HIPPOLYTE;commune;commune;1;;48.83628, 2.345668
75113_8086_00006;751138086;6;;Rue des Reculettes;75013;75113;Paris 13e Arrondissement;;;652447.87;6859296.3;2.352218;48.831967;parcelle;;;PARIS;RUE DES RECULETTES;commune;commune;1;;48.831967, 2.352218
75113_8086_00016;751138086;16;;Rue des Reculettes;75013;75113;Paris 13e Arrondissement;;;652388.1;6859311.58;2.351402;48.8321;parcelle;;;PARIS;RUE DES RECULETTES;commune;commune;1;;48.8321, 2.351402
75113_8086_00026;751138086;26;;Rue des Reculettes;75013;75113;Paris 13e Arrondissement;;;652319.04;6859279.24;2.350465;48.831804;parcelle;;;PARIS;RUE DES RECULETTES;commune;commune;1;;48.831804, 2.350465
75113_0132_00001;751130132;1;;Square Albin Cachot;75013;75113;Paris 13e Arrondissement;;;651806.6;6859487.19;2.343461;48.833636;parcelle;;;PARIS;SQUARE ALBIN CACHOT;commune;commune;1;;48.833636, 2.343461
75113_5905_00002;751135905;2;;Rue Magendie;75013;75113;Paris 13e Arrondissement;;;651999.84;6859525.95;2.346089;48.833999;parcelle;;;PARIS;RUE MAGENDIE;commune;commune;1;;48.833999, 2.346089
75113_6338_00004;751136338;4;;Rue Michel Peter;75013;75113;Paris 13e Arrondissement;;;652523.69;6859832.32;2.353191;48.836793;parcelle;;;PARIS;RUE MICHEL PETER;commune;commune;1;;48.836793, 2.353191
75113_6763_00007;751136763;7;;Rue Nicolas Roret;75013;75113;Paris 13e Arrondissement;;;652569.99;6859730.86;2.353833;48.835884;parcelle;;;PARIS;RUE NICOLAS RORET;commune;commune;1;;48.835884, 2.353833
75113_9324_00002;751139324;2;;Rue Titien;75013;75113;Paris 13e Arrondissement;;;652905.04;6859743.47;2.358396;48.836022;parcelle;;;PARIS;RUE TITIEN;commune;commune;1;;48.836022, 2.358396
75105_1313_00012;751051313;12;;Rue Broca;75005;75105;Paris 5e Arrondissement;;;652196.97;6860054.62;2.348715;48.838768;parcelle;;;PARIS;RUE BROCA;commune;commune;1;;48.838768, 2.348715
75105_1313_00014;751051313;14;;Rue Broca;75005;75105;Paris 5e Arrondissement;;;652193.33;6860049.64;2.348666;48.838723;parcelle;;;PARIS;RUE BROCA;commune;commune;1;;48.838723, 2.348666
75105_1313_00016;751051313;16;;Rue Broca;75005;75105;Paris 5e Arrondissement;;;652189.32;6860044;2.348612;48.838672;parcelle;;;PARIS;RUE BROCA;commune;commune;1;;48.838672, 2.348612
75105_1313_00022;751051313;22;;Rue Broca;75005;75105;Paris 5e Arrondissement;;;652171.01;6860021.81;2.348365;48.838471;parcelle;;;PARIS;RUE BROCA;commune;commune;1;;48.838471, 2.348365
75105_1313_00025;751051313;25;;Rue Broca;75005;75105;Paris 5e Arrondissement;;;652170.65;6859996.34;2.348363;48.838242;parcelle;;;PARIS;RUE BROCA;commune;commune;1;;48.838242, 2.348363
75105_1313_00037;751051313;37;;Rue Broca;75005;75105;Paris 5e Arrondissement;;;652142.03;6859970.56;2.347976;48.838008;parcelle;;;PARIS;RUE BROCA;commune;commune;1;;48.838008, 2.347976
75105_1313_00044;751051313;44;;Rue Broca;75005;75105;Paris 5e Arrondissement;;;652092.78;6859943.95;2.347308;48.837765;parcelle;;;PARIS;RUE BROCA;commune;commune;1;;48.837765, 2.347308
75105_1313_00048;751051313;48;;Rue Broca;75005;75105;Paris 5e Arrondissement;;;652088.01;6859935.09;2.347244;48.837685;parcelle;;;PARIS;RUE BROCA;commune;commune;1;;48.837685, 2.347244
75105_6432_00115;751056432;115;;Rue Monge;75005;75105;Paris 5e Arrondissement;;;652391.36;6860138.08;2.351354;48.839533;parcelle;;;PARIS;RUE MONGE;commune;commune;1;;48.839533, 2.351354
75105_5648_00050;751055648;50;;Rue Lhomond;75005;75105;Paris 5e Arrondissement;;;652170.72;6860333.83;2.348326;48.841277;parcelle;;;PARIS;RUE LHOMOND;commune;commune;1;;48.841277, 2.348326
75105_5648_00060;751055648;60;;Rue Lhomond;75005;75105;Paris 5e Arrondissement;;;652191.72;6860281.61;2.348618;48.840809;parcelle;;;PARIS;RUE LHOMOND;commune;commune;1;;48.840809, 2.348618
75105_5648_00063;751055648;63;;Rue Lhomond;75005;75105;Paris 5e Arrondissement;;;652210.94;6860262.33;2.348882;48.840637;parcelle;;;PARIS;RUE LHOMOND;commune;commune;1;;48.840637, 2.348882
75105_5648_00070;751055648;70;;Rue Lhomond;75005;75105;Paris 5e Arrondissement;;;652201.89;6860241.39;2.348761;48.840448;parcelle;;;PARIS;RUE LHOMOND;commune;commune;1;;48.840448, 2.348761
75105_6581_00119;751056581;119;;Rue Mouffetard;75005;75105;Paris 5e Arrondissement;;;652277.97;6860228.2;2.349799;48.840335;parcelle;;;PARIS;RUE MOUFFETARD;commune;commune;1;;48.840335, 2.349799
75105_1642_00043;751051642;43;;Rue Censier;75005;75105;Paris 5e Arrondissement;;;652358.75;6860144.24;2.350909;48.839586;parcelle;;;PARIS;RUE CENSIER;commune;commune;1;;48.839586, 2.350909
75105_7740_00012;751057740;12;;Boulevard de Port-Royal;75005;75105;Paris 5e Arrondissement;;;652285.93;6859875.75;2.349947;48.837166;parcelle;;;PARIS;BOULEVARD DE PORT ROYAL;commune;commune;1;;48.837166, 2.349947
75105_7740_00020;751057740;20;;Boulevard de Port-Royal;75005;75105;Paris 5e Arrondissement;;;652235.94;6859884.83;2.349265;48.837244;parcelle;;;PARIS;BOULEVARD DE PORT ROYAL;commune;commune;1;;48.837244, 2.349265
75105_7740_00024;751057740;24;;Boulevard de Port-Royal;75005;75105;Paris 5e Arrondissement;;;652205.74;6859890.31;2.348853;48.837291;parcelle;;;PARIS;BOULEVARD DE PORT ROYAL;commune;commune;1;;48.837291, 2.348853
75105_7740_00026;751057740;26;;Boulevard de Port-Royal;75005;75105;Paris 5e Arrondissement;;;652189.91;6859893.11;2.348637;48.837315;parcelle;;;PARIS;BOULEVARD DE PORT ROYAL;commune;commune;1;;48.837315, 2.348637
75105_7740_00066;751057740;66;;Boulevard de Port-Royal;75005;75105;Paris 5e Arrondissement;;;651934.66;6859961.05;2.345152;48.837907;parcelle;;;PARIS;BOULEVARD DE PORT ROYAL;commune;commune;1;;48.837907, 2.345152
75105_7740_00012_b;751057740;12;b;Boulevard de Port-Royal;75005;75105;Paris 5e Arrondissement;;;652270.46;6859878.54;2.349736;48.83719;parcelle;;;PARIS;BOULEVARD DE PORT ROYAL;commune;commune;1;;48.83719, 2.349736
75105_6383_00006;751056383;6;;Rue de Mirbel;75005;75105;Paris 5e Arrondissement;;;652408.56;6860301.85;2.35157;48.841007;parcelle;;;PARIS;RUE DE MIRBEL;commune;commune;1;;48.841007, 2.35157
75105_9719_00003;751059719;3;;Rue Vésale;75005;75105;Paris 5e Arrondissement;;;652533.39;6859985.69;2.353306;48.838173;parcelle;;;PARIS;RUE VESALE;commune;commune;1;;48.838173, 2.353306
75105_9719_00008;751059719;8;;Rue Vésale;75005;75105;Paris 5e Arrondissement;;;652512.21;6859990.2;2.353017;48.838212;parcelle;;;PARIS;RUE VESALE;commune;commune;1;;48.838212, 2.353017
75105_3665_00011;751053665;11;;Rue Flatters;75005;75105;Paris 5e Arrondissement;;;651994.95;6859980.89;2.345971;48.83809;parcelle;;;PARIS;RUE FLATTERS;commune;commune;1;;48.83809, 2.345971
75105_4209_00005;751054209;5;;Avenue des Gobelins;75005;75105;Paris 5e Arrondissement;;;652372.14;6860004.69;2.351107;48.838332;parcelle;;;PARIS;AVENUE DES GOBELINS;commune;commune;1;;48.838332, 2.351107
75105_4209_00009;751054209;9;;Avenue des Gobelins;75005;75105;Paris 5e Arrondissement;;;652390.23;6859964.29;2.351358;48.83797;parcelle;;;PARIS;AVENUE DES GOBELINS;commune;commune;1;;48.83797, 2.351358
75105_4209_00020;751054209;20;;Avenue des Gobelins;75005;75105;Paris 5e Arrondissement;;;652377.43;6859890.23;2.351192;48.837303;parcelle;;;PARIS;AVENUE DES GOBELINS;commune;commune;1;;48.837303, 2.351192
75105_4209_00023;751054209;23;;Avenue des Gobelins;75005;75105;Paris 5e Arrondissement;;;652431.6;6859871.77;2.351932;48.837141;parcelle;;;PARIS;AVENUE DES GOBELINS;commune;commune;1;;48.837141, 2.351932
75105_4209_00012_b;751054209;12;b;Avenue des Gobelins;75005;75105;Paris 5e Arrondissement;;;652359.56;6859930.07;2.350944;48.83766;parcelle;;;PARIS;AVENUE DES GOBELINS;commune;commune;1;;48.83766, 2.350944
75105_4209_00010_bc;751054209;10;bc;Avenue des Gobelins;75005;75105;Paris 5e Arrondissement;;;652302.8;6859927.76;2.350171;48.837635;parcelle;;;PARIS;AVENUE DES GOBELINS;commune;commune;1;;48.837635, 2.350171
75105_0405_00005;751050405;5;;Rue de l'Arbalète;75005;75105;Paris 5e Arrondissement;;;652250.35;6860235.43;2.349422;48.840398;parcelle;;;PARIS;RUE DE L ARBALETE;commune;commune;1;;48.840398, 2.349422
75105_0405_00007;751050405;7;;Rue de l'Arbalète;75005;75105;Paris 5e Arrondissement;;;652233.1;6860235.35;2.349187;48.840396;parcelle;;;PARIS;RUE DE L ARBALETE;commune;commune;1;;48.840396, 2.349187
75105_0405_00008;751050405;8;;Rue de l'Arbalète;75005;75105;Paris 5e Arrondissement;;;652219.6;6860244.91;2.349002;48.840481;parcelle;;;PARIS;RUE DE L ARBALETE;commune;commune;1;;48.840481, 2.349002
75105_5868_00011;751055868;11;;Rue des Lyonnais;75005;75105;Paris 5e Arrondissement;;;652035.24;6860015.48;2.346516;48.838404;parcelle;;;PARIS;RUE DES LYONNAIS;commune;commune;1;;48.838404, 2.346516
75105_5868_00013;751055868;13;;Rue des Lyonnais;75005;75105;Paris 5e Arrondissement;;;652022.43;6860020.7;2.346341;48.83845;parcelle;;;PARIS;RUE DES LYONNAIS;commune;commune;1;;48.83845, 2.346341
75105_5868_00026;751055868;26;;Rue des Lyonnais;75005;75105;Paris 5e Arrondissement;;;652016.43;6860040.76;2.346257;48.83863;parcelle;;;PARIS;RUE DES LYONNAIS;commune;commune;1;;48.83863, 2.346257
75105_8884_00002;751058884;2;;Rue Scipion;75005;75105;Paris 5e Arrondissement;;;652599.02;6859959.69;2.354203;48.837944;parcelle;;;PARIS;RUE SCIPION;commune;commune;1;;48.837944, 2.354203
75105_8884_00003;751058884;3;;Rue Scipion;75005;75105;Paris 5e Arrondissement;;;652586.59;6859957.01;2.354034;48.837919;parcelle;;;PARIS;RUE SCIPION;commune;commune;1;;48.837919, 2.354034
75105_8884_00007;751058884;7;;Rue Scipion;75005;75105;Paris 5e Arrondissement;;;652570.22;6859983.94;2.353808;48.83816;parcelle;;;PARIS;RUE SCIPION;commune;commune;1;;48.83816, 2.353808
75105_8884_00013;751058884;13;;Rue Scipion;75005;75105;Paris 5e Arrondissement;;;652540.53;6860033.11;2.353398;48.8386;parcelle;;;PARIS;RUE SCIPION;commune;commune;1;;48.8386, 2.353398
75105_9626_00016;751059626;16;;Rue Vauquelin;75005;75105;Paris 5e Arrondissement;;;652080.26;6860302.77;2.347097;48.840991;parcelle;;;PARIS;RUE VAUQUELIN;commune;commune;1;;48.840991, 2.347097
75105_9626_00020;751059626;20;;Rue Vauquelin;75005;75105;Paris 5e Arrondissement;;;652065.77;6860290.66;2.346901;48.840881;parcelle;;;PARIS;RUE VAUQUELIN;commune;commune;1;;48.840881, 2.346901
75105_9626_00032;751059626;32;;Rue Vauquelin;75005;75105;Paris 5e Arrondissement;;;652012.71;6860246.4;2.346183;48.840479;parcelle;;;PARIS;RUE VAUQUELIN;commune;commune;1;;48.840479, 2.346183
75105_2580_00001;751052580;1;;Rue Daubenton;75005;75105;Paris 5e Arrondissement;;;652705.05;6860351.24;2.355604;48.841473;parcelle;;;PARIS;RUE DAUBENTON;commune;commune;1;;48.841473, 2.355604
75105_2580_00003;751052580;3;;Rue Daubenton;75005;75105;Paris 5e Arrondissement;;;652701.89;6860350.37;2.355561;48.841465;parcelle;;;PARIS;RUE DAUBENTON;commune;commune;1;;48.841465, 2.355561
75105_2580_00011;751052580;11;;Rue Daubenton;75005;75105;Paris 5e Arrondissement;;;652625.12;6860333.54;2.354517;48.841308;parcelle;;;PARIS;RUE DAUBENTON;commune;commune;1;;48.841308, 2.354517
75105_2580_00020;751052580;20;;Rue Daubenton;75005;75105;Paris 5e Arrondissement;;;652566.44;6860338.14;2.353717;48.841345;parcelle;;;PARIS;RUE DAUBENTON;commune;commune;1;;48.841345, 2.353717
75105_2580_00022;751052580;22;;Rue Daubenton;75005;75105;Paris 5e Arrondissement;;;652558.87;6860336.75;2.353614;48.841332;parcelle;;;PARIS;RUE DAUBENTON;commune;commune;1;;48.841332, 2.353614
75105_2580_00031;751052580;31;;Rue Daubenton;75005;75105;Paris 5e Arrondissement;;;652468.64;6860289.23;2.35239;48.840898;parcelle;;;PARIS;RUE DAUBENTON;commune;commune;1;;48.840898, 2.35239
75105_2580_00034;751052580;34;;Rue Daubenton;75005;75105;Paris 5e Arrondissement;;;652474.01;6860316.65;2.35246;48.841145;parcelle;;;PARIS;RUE DAUBENTON;commune;commune;1;;48.841145, 2.35246
75105_2580_00035;751052580;35;;Rue Daubenton;75005;75105;Paris 5e Arrondissement;;;652380.84;6860223.9;2.351201;48.840304;parcelle;;;PARIS;RUE DAUBENTON;commune;commune;1;;48.840304, 2.351201
75105_2580_00048;751052580;48;;Rue Daubenton;75005;75105;Paris 5e Arrondissement;;;652302.09;6860207.54;2.35013;48.840151;parcelle;;;PARIS;RUE DAUBENTON;commune;commune;1;;48.840151, 2.35013
75105_2580_00052;751052580;52;;Rue Daubenton;75005;75105;Paris 5e Arrondissement;;;652287.39;6860204.54;2.34993;48.840123;parcelle;;;PARIS;RUE DAUBENTON;commune;commune;1;;48.840123, 2.34993
75105_4108_00007;751054108;7;;Rue Geoffroy-Saint-Hilaire;75005;75105;Paris 5e Arrondissement;;;652788.61;6860067.11;2.356774;48.838924;parcelle;;;PARIS;RUE GEOFFROY SAINT HILAIRE;commune;commune;1;;48.838924, 2.356774
75105_4108_00014;751054108;14;;Rue Geoffroy-Saint-Hilaire;75005;75105;Paris 5e Arrondissement;;;652787.15;6860130.73;2.356747;48.839496;parcelle;;;PARIS;RUE GEOFFROY SAINT HILAIRE;commune;commune;1;;48.839496, 2.356747
75105_4108_00018;751054108;18;;Rue Geoffroy-Saint-Hilaire;75005;75105;Paris 5e Arrondissement;;;652773.34;6860174.43;2.356554;48.839888;parcelle;;;PARIS;RUE GEOFFROY SAINT HILAIRE;commune;commune;1;;48.839888, 2.356554
75105_4108_00026;751054108;26;;Rue Geoffroy-Saint-Hilaire;75005;75105;Paris 5e Arrondissement;;;652762.3;6860224.34;2.356398;48.840336;parcelle;;;PARIS;RUE GEOFFROY SAINT HILAIRE;commune;commune;1;;48.840336, 2.356398
75105_4108_00036;751054108;36;;Rue Geoffroy-Saint-Hilaire;75005;75105;Paris 5e Arrondissement;;;652733.32;6860353.01;2.355989;48.841491;parcelle;;;PARIS;RUE GEOFFROY SAINT HILAIRE;commune;commune;1;;48.841491, 2.355989
75105_8813_00001;751058813;1;;Rue Santeuil;75005;75105;Paris 5e Arrondissement;;;652634.57;6860115.85;2.35467;48.839351;parcelle;;;PARIS;RUE SANTEUIL;commune;commune;1;;48.839351, 2.35467
75105_8813_00003;751058813;3;;Rue Santeuil;75005;75105;Paris 5e Arrondissement;;;652630.04;6860127.23;2.354607;48.839453;parcelle;;;PARIS;RUE SANTEUIL;commune;commune;1;;48.839453, 2.354607
75105_8813_00018;751058813;18;;Rue Santeuil;75005;75105;Paris 5e Arrondissement;;;652611.28;6860220.01;2.354341;48.840286;parcelle;;;PARIS;RUE SANTEUIL;commune;commune;1;;48.840286, 2.354341
75105_3573_00007;751053573;7;;Rue du Fer à Moulin;75005;75105;Paris 5e Arrondissement;;;652681.29;6860110.58;2.355307;48.839307;parcelle;;;PARIS;RUE DU FER A MOULIN;commune;commune;1;;48.839307, 2.355307
75105_3573_00029;751053573;29;;Rue du Fer à Moulin;75005;75105;Paris 5e Arrondissement;;;652484.52;6860050.58;2.352633;48.838753;parcelle;;;PARIS;RUE DU FER A MOULIN;commune;commune;1;;48.838753, 2.352633
75105_3573_00032;751053573;32;;Rue du Fer à Moulin;75005;75105;Paris 5e Arrondissement;;;652523.62;6860073.84;2.353163;48.838965;parcelle;;;PARIS;RUE DU FER A MOULIN;commune;commune;1;;48.838965, 2.353163
75113_2984_00008;751132984;8;;Rue Duméril;75013;75113;Paris 13e Arrondissement;;;652830.47;6859925.11;2.35736;48.83765;parcelle;;;PARIS;RUE DUMERIL;commune;commune;1;;48.83765, 2.35736
75113_2984_00010;751132984;10;;Rue Duméril;75013;75113;Paris 13e Arrondissement;;;652837.32;6859909.93;2.357455;48.837514;parcelle;;;PARIS;RUE DUMERIL;commune;commune;1;;48.837514, 2.357455
75113_2984_00004_b;751132984;4;b;Rue Duméril;75013;75113;Paris 13e Arrondissement;;;652816.48;6859955.91;2.357166;48.837926;parcelle;;;PARIS;RUE DUMERIL;commune;commune;1;;48.837926, 2.357166
75113_2355_00028;751132355;28;;Rue Corvisart;75013;75113;Paris 13e Arrondissement;;;652071.49;6859330.54;2.347087;48.832247;parcelle;;;PARIS;RUE CORVISART;commune;commune;1;;48.832247, 2.347087
75113_2355_00066;751132355;66;;Rue Corvisart;75013;75113;Paris 13e Arrondissement;;;652194.37;6859108.02;2.348786;48.830255;parcelle;;;PARIS;RUE CORVISART;commune;commune;1;;48.830255, 2.348786
75113_4209_00029;751134209;29;;Avenue des Gobelins;75013;75113;Paris 13e Arrondissement;;;652469.37;6859787.62;2.352456;48.836387;parcelle;;;PARIS;AVENUE DES GOBELINS;commune;commune;1;;48.836387, 2.352456
75113_4209_00039;751134209;39;;Avenue des Gobelins;75013;75113;Paris 13e Arrondissement;;;652503.47;6859711.39;2.352929;48.835704;parcelle;;;PARIS;AVENUE DES GOBELINS;commune;commune;1;;48.835704, 2.352929
75113_4209_00070;751134209;70;;Avenue des Gobelins;75013;75113;Paris 13e Arrondissement;;;652615.32;6859358.87;2.354492;48.832542;parcelle;;;PARIS;AVENUE DES GOBELINS;commune;commune;1;;48.832542, 2.354492
75113_4209_00079;751134209;79;;Avenue des Gobelins;75013;75113;Paris 13e Arrondissement;;;652663.39;6859357.03;2.355147;48.832529;parcelle;;;PARIS;AVENUE DES GOBELINS;commune;commune;1;;48.832529, 2.355147
75113_9948_00001;751139948;1;;Rue Watteau;75013;75113;Paris 13e Arrondissement;;;652746.89;6859685.49;2.356248;48.835489;parcelle;;;PARIS;RUE WATTEAU;commune;commune;1;;48.835489, 2.356248
75113_9948_00005;751139948;5;;Rue Watteau;75013;75113;Paris 13e Arrondissement;;;652757.14;6859673.07;2.356389;48.835378;parcelle;;;PARIS;RUE WATTEAU;commune;commune;1;;48.835378, 2.356389
75113_9948_00020_b;751139948;20;b;Rue Watteau;75013;75113;Paris 13e Arrondissement;;;652812.51;6859585.88;2.357153;48.834598;parcelle;;;PARIS;RUE WATTEAU;commune;commune;1;;48.834598, 2.357153
75113_4930_00159;751134930;159;;Rue Jeanne d'Arc;75013;75113;Paris 13e Arrondissement;;;652923.66;6859839.84;2.358639;48.83689;parcelle;;;PARIS;RUE JEANNE D ARC;commune;commune;1;;48.83689, 2.358639
75113_4930_00160;751134930;160;;Rue Jeanne d'Arc;75013;75113;Paris 13e Arrondissement;;;652948.51;6859844.53;2.358977;48.836934;parcelle;;;PARIS;RUE JEANNE D ARC;commune;commune;1;;48.836934, 2.358977
75113_4930_00171;751134930;171;;Rue Jeanne d'Arc;75013;75113;Paris 13e Arrondissement;;;652865.81;6859919.59;2.357842;48.837603;parcelle;;;PARIS;RUE JEANNE D ARC;commune;commune;1;;48.837603, 2.357842
75113_7740_00005;751137740;5;;Boulevard de Port-Royal;75013;75113;Paris 13e Arrondissement;;;652304.05;6859829.78;2.350199;48.836754;parcelle;;;PARIS;BOULEVARD DE PORT ROYAL;commune;commune;1;;48.836754, 2.350199
75113_7740_00013;751137740;13;;Boulevard de Port-Royal;75013;75113;Paris 13e Arrondissement;;;652250.4;6859839.57;2.349467;48.836838;parcelle;;;PARIS;BOULEVARD DE PORT ROYAL;commune;commune;1;;48.836838, 2.349467
75113_5114_00003;751135114;3;;Rue de Julienne;75013;75113;Paris 13e Arrondissement;;;652103.12;6859623.5;2.347485;48.834884;parcelle;;;PARIS;RUE DE JULIENNE;commune;commune;1;;48.834884, 2.347485
75105_2094_00001;751052094;1;;Rue de la Clef;75005;75105;Paris 5e Arrondissement;;;652571.57;6860094.68;2.353814;48.839156;parcelle;;;PARIS;RUE DE LA CLEF;commune;commune;1;;48.839156, 2.353814
75105_2094_00017;751052094;17;;Rue de la Clef;75005;75105;Paris 5e Arrondissement;;;652492.67;6860283.59;2.352718;48.840849;parcelle;;;PARIS;RUE DE LA CLEF;commune;commune;1;;48.840849, 2.352718
75105_2094_00022;751052094;22;;Rue de la Clef;75005;75105;Paris 5e Arrondissement;;;652506.02;6860282.36;2.3529;48.840839;parcelle;;;PARIS;RUE DE LA CLEF;commune;commune;1;;48.840839, 2.3529
75105_2094_00024;751052094;24;;Rue de la Clef;75005;75105;Paris 5e Arrondissement;;;652498.97;6860299.99;2.352802;48.840997;parcelle;;;PARIS;RUE DE LA CLEF;commune;commune;1;;48.840997, 2.352802
75105_2094_00014_b;751052094;14;b;Rue de la Clef;75005;75105;Paris 5e Arrondissement;;;652536.39;6860208.06;2.353322;48.840173;parcelle;;;PARIS;RUE DE LA CLEF;commune;commune;1;;48.840173, 2.353322
75105_5258_00001;751055258;1;;Rue Lagarde;75005;75105;Paris 5e Arrondissement;;;652097.25;6860289.73;2.34733;48.840875;parcelle;;;PARIS;RUE LAGARDE;commune;commune;1;;48.840875, 2.34733
75105_5258_00003;751055258;3;;Rue Lagarde;75005;75105;Paris 5e Arrondissement;;;652105.97;6860279.1;2.34745;48.84078;parcelle;;;PARIS;RUE LAGARDE;commune;commune;1;;48.84078, 2.34745
75105_5258_00011;751055258;11;;Rue Lagarde;75005;75105;Paris 5e Arrondissement;;;652141.65;6860235.77;2.347941;48.840393;parcelle;;;PARIS;RUE LAGARDE;commune;commune;1;;48.840393, 2.347941
75105_5258_00012;751055258;12;;Rue Lagarde;75005;75105;Paris 5e Arrondissement;;;652137.4;6860218.9;2.347885;48.840241;parcelle;;;PARIS;RUE LAGARDE;commune;commune;1;;48.840241, 2.347885
75105_1313_00009;751051313;9;;Rue Broca;75005;75105;Paris 5e Arrondissement;;;652210.75;6860043.94;2.348904;48.838673;parcelle;;;PARIS;RUE BROCA;commune;commune;1;;48.838673, 2.348904
75105_1313_00011;751051313;11;;Rue Broca;75005;75105;Paris 5e Arrondissement;;;652206.75;6860038.63;2.34885;48.838625;parcelle;;;PARIS;RUE BROCA;commune;commune;1;;48.838625, 2.34885
75105_1313_00033;751051313;33;;Rue Broca;75005;75105;Paris 5e Arrondissement;;;652149.42;6859976.39;2.348076;48.838061;parcelle;;;PARIS;RUE BROCA;commune;commune;1;;48.838061, 2.348076
75105_1313_00041;751051313;41;;Rue Broca;75005;75105;Paris 5e Arrondissement;;;652128.73;6859959.44;2.347796;48.837907;parcelle;;;PARIS;RUE BROCA;commune;commune;1;;48.837907, 2.347796
75105_1313_00046;751051313;46;;Rue Broca;75005;75105;Paris 5e Arrondissement;;;652090.02;6859938.85;2.347271;48.837719;parcelle;;;PARIS;RUE BROCA;commune;commune;1;;48.837719, 2.347271
75105_1313_00050;751051313;50;;Rue Broca;75005;75105;Paris 5e Arrondissement;;;652083.98;6859927.45;2.34719;48.837616;parcelle;;;PARIS;RUE BROCA;commune;commune;1;;48.837616, 2.34719
75105_6432_00107;751056432;107;;Rue Monge;75005;75105;Paris 5e Arrondissement;;;652422.42;6860220.22;2.351768;48.840274;parcelle;;;PARIS;RUE MONGE;commune;commune;1;;48.840274, 2.351768
75105_6432_00110;751056432;110;;Rue Monge;75005;75105;Paris 5e Arrondissement;;;652359.17;6860115.11;2.350918;48.839324;parcelle;;;PARIS;RUE MONGE;commune;commune;1;;48.839324, 2.350918
75105_6432_00118;751056432;118;;Rue Monge;75005;75105;Paris 5e Arrondissement;;;652345.29;6860078.75;2.350733;48.838996;parcelle;;;PARIS;RUE MONGE;commune;commune;1;;48.838996, 2.350733
75105_5648_00058;751055648;58;;Rue Lhomond;75005;75105;Paris 5e Arrondissement;;;652184.97;6860291.01;2.348525;48.840893;parcelle;;;PARIS;RUE LHOMOND;commune;commune;1;;48.840893, 2.348525
75105_5648_00062;751055648;62;;Rue Lhomond;75005;75105;Paris 5e Arrondissement;;;652192.72;6860277.49;2.348632;48.840772;parcelle;;;PARIS;RUE LHOMOND;commune;commune;1;;48.840772, 2.348632
75105_5648_00050_b;751055648;50;b;Rue Lhomond;75005;75105;Paris 5e Arrondissement;;;652171.97;6860325.14;2.348344;48.841199;parcelle;;;PARIS;RUE LHOMOND;commune;commune;1;;48.841199, 2.348344
75105_6581_00120;751056581;120;;Rue Mouffetard;75005;75105;Paris 5e Arrondissement;;;652271.4;6860215.24;2.349711;48.840218;parcelle;;;PARIS;RUE MOUFFETARD;commune;commune;1;;48.840218, 2.349711
75105_6581_00129;751056581;129;;Rue Mouffetard;75005;75105;Paris 5e Arrondissement;;;652282.48;6860196.91;2.349864;48.840054;parcelle;;;PARIS;RUE MOUFFETARD;commune;commune;1;;48.840054, 2.349864
75105_6581_00131;751056581;131;;Rue Mouffetard;75005;75105;Paris 5e Arrondissement;;;652282;6860192.47;2.349858;48.840014;parcelle;;;PARIS;RUE MOUFFETARD;commune;commune;1;;48.840014, 2.349858
75105_6581_00132;751056581;132;;Rue Mouffetard;75005;75105;Paris 5e Arrondissement;;;652270.22;6860170.55;2.3497;48.839816;parcelle;;;PARIS;RUE MOUFFETARD;commune;commune;1;;48.839816, 2.3497
75105_6581_00142;751056581;142;;Rue Mouffetard;75005;75105;Paris 5e Arrondissement;;;652274.22;6860129.26;2.349759;48.839445;parcelle;;;PARIS;RUE MOUFFETARD;commune;commune;1;;48.839445, 2.349759
75105_1642_00013;751051642;13;;Rue Censier;75005;75105;Paris 5e Arrondissement;;;652649.23;6860274.19;2.354852;48.840776;parcelle;;;PARIS;RUE CENSIER;commune;commune;1;;48.840776, 2.354852
75105_1642_00017;751051642;17;;Rue Censier;75005;75105;Paris 5e Arrondissement;;;652613.59;6860260.91;2.354368;48.840654;parcelle;;;PARIS;RUE CENSIER;commune;commune;1;;48.840654, 2.354368
75105_1642_00024;751051642;24;;Rue Censier;75005;75105;Paris 5e Arrondissement;;;652463.14;6860235.68;2.352321;48.840416;parcelle;;;PARIS;RUE CENSIER;commune;commune;1;;48.840416, 2.352321
75105_1642_00037;751051642;37;;Rue Censier;75005;75105;Paris 5e Arrondissement;;;652448.52;6860198.77;2.352126;48.840083;parcelle;;;PARIS;RUE CENSIER;commune;commune;1;;48.840083, 2.352126
75105_7740_00002;751057740;2;;Boulevard de Port-Royal;75005;75105;Paris 5e Arrondissement;;;652375.49;6859859.55;2.351169;48.837027;parcelle;;;PARIS;BOULEVARD DE PORT ROYAL;commune;commune;1;;48.837027, 2.351169
75105_7740_00006;751057740;6;;Boulevard de Port-Royal;75005;75105;Paris 5e Arrondissement;;;652343.61;6859865.26;2.350734;48.837076;parcelle;;;PARIS;BOULEVARD DE PORT ROYAL;commune;commune;1;;48.837076, 2.350734
75105_7740_00034;751057740;34;;Boulevard de Port-Royal;75005;75105;Paris 5e Arrondissement;;;652166.16;6859897.42;2.348313;48.837352;parcelle;;;PARIS;BOULEVARD DE PORT ROYAL;commune;commune;1;;48.837352, 2.348313
75105_7740_00046;751057740;46;;Boulevard de Port-Royal;75005;75105;Paris 5e Arrondissement;;;652063.72;6859918.61;2.346915;48.837535;parcelle;;;PARIS;BOULEVARD DE PORT ROYAL;commune;commune;1;;48.837535, 2.346915
75105_7740_00056;751057740;56;;Boulevard de Port-Royal;75005;75105;Paris 5e Arrondissement;;;652013.87;6859935.04;2.346234;48.837679;parcelle;;;PARIS;BOULEVARD DE PORT ROYAL;commune;commune;1;;48.837679, 2.346234
75105_7740_00062;751057740;62;;Boulevard de Port-Royal;75005;75105;Paris 5e Arrondissement;;;651976.61;6859947.24;2.345725;48.837786;parcelle;;;PARIS;BOULEVARD DE PORT ROYAL;commune;commune;1;;48.837786, 2.345725
75105_9719_00011;751059719;11;;Rue Vésale;75005;75105;Paris 5e Arrondissement;;;652462.03;6859947.69;2.352338;48.837826;parcelle;;;PARIS;RUE VESALE;commune;commune;1;;48.837826, 2.352338
75105_4209_00003;751054209;3;;Avenue des Gobelins;75005;75105;Paris 5e Arrondissement;;;652367.59;6860014.85;2.351044;48.838423;parcelle;;;PARIS;AVENUE DES GOBELINS;commune;commune;1;;48.838423, 2.351044
75105_4209_00011;751054209;11;;Avenue des Gobelins;75005;75105;Paris 5e Arrondissement;;;652396.57;6859950.12;2.351446;48.837843;parcelle;;;PARIS;AVENUE DES GOBELINS;commune;commune;1;;48.837843, 2.351446
75105_4209_00012;751054209;12;;Avenue des Gobelins;75005;75105;Paris 5e Arrondissement;;;652355.67;6859938.89;2.35089;48.837739;parcelle;;;PARIS;AVENUE DES GOBELINS;commune;commune;1;;48.837739, 2.35089
75105_4209_00010_b;751054209;10;b;Avenue des Gobelins;75005;75105;Paris 5e Arrondissement;;;652353.29;6859944.13;2.350857;48.837786;parcelle;;;PARIS;AVENUE DES GOBELINS;commune;commune;1;;48.837786, 2.350857
75105_0916_00004;751050916;4;;Rue Berthollet;75005;75105;Paris 5e Arrondissement;;;651987.48;6860187.23;2.345846;48.839945;parcelle;;;PARIS;RUE BERTHOLLET;commune;commune;1;;48.839945, 2.345846
75105_0916_00022;751050916;22;;Rue Berthollet;75005;75105;Paris 5e Arrondissement;;;651970.83;6860064.16;2.345633;48.838837;parcelle;;;PARIS;RUE BERTHOLLET;commune;commune;1;;48.838837, 2.345633
75105_0916_00028;751050916;28;;Rue Berthollet;75005;75105;Paris 5e Arrondissement;;;651963.78;6860011.29;2.345543;48.838361;parcelle;;;PARIS;RUE BERTHOLLET;commune;commune;1;;48.838361, 2.345543
75105_0916_00030;751050916;30;;Rue Berthollet;75005;75105;Paris 5e Arrondissement;;;651959.87;6859982.19;2.345493;48.838099;parcelle;;;PARIS;RUE BERTHOLLET;commune;commune;1;;48.838099, 2.345493
75105_0916_00032;751050916;32;;Rue Berthollet;75005;75105;Paris 5e Arrondissement;;;651957.6;6859965.08;2.345464;48.837945;parcelle;;;PARIS;RUE BERTHOLLET;commune;commune;1;;48.837945, 2.345464
75105_9626_00013;751059626;13;;Rue Vauquelin;75005;75105;Paris 5e Arrondissement;;;652069.39;6860275.4;2.346952;48.840744;parcelle;;;PARIS;RUE VAUQUELIN;commune;commune;1;;48.840744, 2.346952
75105_9626_00011_b;751059626;11;b;Rue Vauquelin;75005;75105;Paris 5e Arrondissement;;;652078.26;6860282.88;2.347072;48.840812;parcelle;;;PARIS;RUE VAUQUELIN;commune;commune;1;;48.840812, 2.347072
75105_2580_00007;751052580;7;;Rue Daubenton;75005;75105;Paris 5e Arrondissement;;;652669.31;6860342.3;2.355118;48.84139;parcelle;;;PARIS;RUE DAUBENTON;commune;commune;1;;48.84139, 2.355118
75105_2580_00013;751052580;13;;Rue Daubenton;75005;75105;Paris 5e Arrondissement;;;652606.98;6860331.13;2.35427;48.841285;parcelle;;;PARIS;RUE DAUBENTON;commune;commune;1;;48.841285, 2.35427
75105_2580_00014;751052580;14;;Rue Daubenton;75005;75105;Paris 5e Arrondissement;;;652618.95;6860350.16;2.354431;48.841457;parcelle;;;PARIS;RUE DAUBENTON;commune;commune;1;;48.841457, 2.354431
75105_2580_00015;751052580;15;;Rue Daubenton;75005;75105;Paris 5e Arrondissement;;;652594.48;6860329.23;2.3541;48.841267;parcelle;;;PARIS;RUE DAUBENTON;commune;commune;1;;48.841267, 2.3541
75105_2580_00038;751052580;38;;Rue Daubenton;75005;75105;Paris 5e Arrondissement;;;652452.57;6860297.7;2.35217;48.840973;parcelle;;;PARIS;RUE DAUBENTON;commune;commune;1;;48.840973, 2.35217
75105_2580_00042;751052580;42;;Rue Daubenton;75005;75105;Paris 5e Arrondissement;;;652385.76;6860251.55;2.351265;48.840553;parcelle;;;PARIS;RUE DAUBENTON;commune;commune;1;;48.840553, 2.351265
75105_2580_00043;751052580;43;;Rue Daubenton;75005;75105;Paris 5e Arrondissement;;;652310.13;6860203.8;2.35024;48.840118;parcelle;;;PARIS;RUE DAUBENTON;commune;commune;1;;48.840118, 2.35024
75105_4108_00020;751054108;20;;Rue Geoffroy-Saint-Hilaire;75005;75105;Paris 5e Arrondissement;;;652769.92;6860187.03;2.356506;48.840001;parcelle;;;PARIS;RUE GEOFFROY SAINT HILAIRE;commune;commune;1;;48.840001, 2.356506
75105_4108_00029;751054108;29;;Rue Geoffroy-Saint-Hilaire;75005;75105;Paris 5e Arrondissement;;;652735.22;6860252.91;2.356026;48.840591;parcelle;;;PARIS;RUE GEOFFROY SAINT HILAIRE;commune;commune;1;;48.840591, 2.356026
75105_4108_00034_b;751054108;34;b;Rue Geoffroy-Saint-Hilaire;75005;75105;Paris 5e Arrondissement;;;652743.44;6860305.78;2.356132;48.841067;parcelle;;;PARIS;RUE GEOFFROY SAINT HILAIRE;commune;commune;1;;48.841067, 2.356132
75105_8813_00016;751058813;16;;Rue Santeuil;75005;75105;Paris 5e Arrondissement;;;652615.67;6860209.19;2.354402;48.840189;parcelle;;;PARIS;RUE SANTEUIL;commune;commune;1;;48.840189, 2.354402
75105_8813_00022;751058813;22;;Rue Santeuil;75005;75105;Paris 5e Arrondissement;;;652600.34;6860246.68;2.354189;48.840525;parcelle;;;PARIS;RUE SANTEUIL;commune;commune;1;;48.840525, 2.354189
75105_3573_00019;751053573;19;;Rue du Fer à Moulin;75005;75105;Paris 5e Arrondissement;;;652590.73;6860076.74;2.354077;48.838996;parcelle;;;PARIS;RUE DU FER A MOULIN;commune;commune;1;;48.838996, 2.354077
75105_3573_00020;751053573;20;;Rue du Fer à Moulin;75005;75105;Paris 5e Arrondissement;;;652604.77;6860097.3;2.354266;48.839182;parcelle;;;PARIS;RUE DU FER A MOULIN;commune;commune;1;;48.839182, 2.354266
75105_3573_00036;751053573;36;;Rue du Fer à Moulin;75005;75105;Paris 5e Arrondissement;;;652499.72;6860068.47;2.352838;48.838915;parcelle;;;PARIS;RUE DU FER A MOULIN;commune;commune;1;;48.838915, 2.352838
75105_3573_00041;751053573;41;;Rue du Fer à Moulin;75005;75105;Paris 5e Arrondissement;;;652382.5;6860023.96;2.351246;48.838506;parcelle;;;PARIS;RUE DU FER A MOULIN;commune;commune;1;;48.838506, 2.351246
75105_3573_00042;751053573;42;;Rue du Fer à Moulin;75005;75105;Paris 5e Arrondissement;;;652453.84;6860058.84;2.352214;48.838825;parcelle;;;PARIS;RUE DU FER A MOULIN;commune;commune;1;;48.838825, 2.352214
75105_3573_00046;751053573;46;;Rue du Fer à Moulin;75005;75105;Paris 5e Arrondissement;;;652416.97;6860047.47;2.351713;48.83872;parcelle;;;PARIS;RUE DU FER A MOULIN;commune;commune;1;;48.83872, 2.351713
75113_7159_00005;751137159;5;;Rue Paul Gervais;75013;75113;Paris 13e Arrondissement;;;652085.54;6859210.11;2.347292;48.831165;parcelle;;;PARIS;RUE PAUL GERVAIS;commune;commune;1;;48.831165, 2.347292
75113_7159_00016;751137159;16;;Rue Paul Gervais;75013;75113;Paris 13e Arrondissement;;;652062.28;6859167.6;2.34698;48.830781;parcelle;;;PARIS;RUE PAUL GERVAIS;commune;commune;1;;48.830781, 2.34698
75113_0402_00006;751130402;6;;Boulevard Arago;75013;75113;Paris 13e Arrondissement;;;652308.06;6859800.51;2.350257;48.836491;parcelle;;;PARIS;BOULEVARD ARAGO;commune;commune;1;;48.836491, 2.350257
75113_0402_00025;751130402;25;;Boulevard Arago;75013;75113;Paris 13e Arrondissement;;;652218.14;6859711.62;2.349042;48.835685;parcelle;;;PARIS;BOULEVARD ARAGO;commune;commune;1;;48.835685, 2.349042
75113_0402_00035;751130402;35;;Boulevard Arago;75013;75113;Paris 13e Arrondissement;;;652124.56;6859667.58;2.347772;48.835282;parcelle;;;PARIS;BOULEVARD ARAGO;commune;commune;1;;48.835282, 2.347772
75113_0402_00046;751130402;46;;Boulevard Arago;75013;75113;Paris 13e Arrondissement;;;651938.96;6859655.66;2.345245;48.835161;parcelle;;;PARIS;BOULEVARD ARAGO;commune;commune;1;;48.835161, 2.345245
75113_0402_00055;751130402;55;;Boulevard Arago;75013;75113;Paris 13e Arrondissement;;;651888.45;6859610.6;2.344562;48.834752;parcelle;;;PARIS;BOULEVARD ARAGO;commune;commune;1;;48.834752, 2.344562
75113_0402_00065;751130402;65;;Boulevard Arago;75013;75113;Paris 13e Arrondissement;;;651780.56;6859604.38;2.343093;48.834688;parcelle;;;PARIS;BOULEVARD ARAGO;commune;commune;1;;48.834688, 2.343093
75113_0402_00023_b;751130402;23;b;Boulevard Arago;75013;75113;Paris 13e Arrondissement;;;652230.97;6859717.74;2.349216;48.835741;parcelle;;;PARIS;BOULEVARD ARAGO;commune;commune;1;;48.835741, 2.349216
75113_7076_00033;751137076;33;;Rue Pascal;75013;75113;Paris 13e Arrondissement;;;652211.79;6859830.88;2.348942;48.836757;parcelle;;;PARIS;RUE PASCAL;commune;commune;1;;48.836757, 2.348942
75113_7076_00038;751137076;38;;Rue Pascal;75013;75113;Paris 13e Arrondissement;;;652192.99;6859820.8;2.348687;48.836665;parcelle;;;PARIS;RUE PASCAL;commune;commune;1;;48.836665, 2.348687
75113_7076_00039;751137076;39;;Rue Pascal;75013;75113;Paris 13e Arrondissement;;;652194.23;6859775.65;2.348709;48.836259;parcelle;;;PARIS;RUE PASCAL;commune;commune;1;;48.836259, 2.348709
75113_7076_00040;751137076;40;;Rue Pascal;75013;75113;Paris 13e Arrondissement;;;652186.51;6859800.62;2.348601;48.836483;parcelle;;;PARIS;RUE PASCAL;commune;commune;1;;48.836483, 2.348601
75113_0541_00066;751130541;66;;Boulevard Auguste Blanqui;75013;75113;Paris 13e Arrondissement;;;652149.4;6859102.28;2.348174;48.8302;parcelle;;;PARIS;BOULEVARD AUGUSTE BLANQUI;commune;commune;1;;48.8302, 2.348174
75113_0541_00074;751130541;74;;Boulevard Auguste Blanqui;75013;75113;Paris 13e Arrondissement;;;652051.52;6859144.23;2.346836;48.83057;parcelle;;;PARIS;BOULEVARD AUGUSTE BLANQUI;commune;commune;1;;48.83057, 2.346836
75113_0541_00084;751130541;84;;Boulevard Auguste Blanqui;75013;75113;Paris 13e Arrondissement;;;652007.11;6859163.28;2.346229;48.830738;parcelle;;;PARIS;BOULEVARD AUGUSTE BLANQUI;commune;commune;1;;48.830738, 2.346229
75113_0541_00092;751130541;92;;Boulevard Auguste Blanqui;75013;75113;Paris 13e Arrondissement;;;651941.06;6859191.73;2.345326;48.830989;parcelle;;;PARIS;BOULEVARD AUGUSTE BLANQUI;commune;commune;1;;48.830989, 2.345326
75113_0541_00104;751130541;104;;Boulevard Auguste Blanqui;75013;75113;Paris 13e Arrondissement;;;651835.06;6859236.98;2.343877;48.831388;parcelle;;;PARIS;BOULEVARD AUGUSTE BLANQUI;commune;commune;1;;48.831388, 2.343877
75113_0541_00116;751130541;116;;Boulevard Auguste Blanqui;75013;75113;Paris 13e Arrondissement;;;651769.96;6859264.88;2.342987;48.831634;parcelle;;;PARIS;BOULEVARD AUGUSTE BLANQUI;commune;commune;1;;48.831634, 2.342987
75113_0541_00110_t;751130541;110;t;Boulevard Auguste Blanqui;75013;75113;Paris 13e Arrondissement;;;651799.51;6859252.18;2.343391;48.831522;parcelle;;;PARIS;BOULEVARD AUGUSTE BLANQUI;commune;commune;1;;48.831522, 2.343391
75113_5570_00104;751135570;104;;Rue Léon-Maurice Nordmann;75013;75113;Paris 13e Arrondissement;;;651969.14;6859586.47;2.345664;48.834541;parcelle;;;PARIS;RUE LEON MAURICE NORDMANN;commune;commune;1;;48.834541, 2.345664
75113_5570_00123;751135570;123;;Rue Léon-Maurice Nordmann;75013;75113;Paris 13e Arrondissement;;;651925.12;6859545.03;2.345069;48.834165;parcelle;;;PARIS;RUE LEON MAURICE NORDMANN;commune;commune;1;;48.834165, 2.345069
75113_5570_00133;751135570;133;;Rue Léon-Maurice Nordmann;75013;75113;Paris 13e Arrondissement;;;651855.41;6859513.36;2.344123;48.833875;parcelle;;;PARIS;RUE LEON MAURICE NORDMANN;commune;commune;1;;48.833875, 2.344123
75113_5570_00138;751135570;138;;Rue Léon-Maurice Nordmann;75013;75113;Paris 13e Arrondissement;;;651824.1;6859516.62;2.343696;48.833902;parcelle;;;PARIS;RUE LEON MAURICE NORDMANN;commune;commune;1;;48.833902, 2.343696
75113_4201_00006;751134201;6;;Rue de la Glacière;75013;75113;Paris 13e Arrondissement;;;651945.32;6859873.67;2.345307;48.837122;parcelle;;;PARIS;RUE DE LA GLACIERE;commune;commune;1;;48.837122, 2.345307
75113_4201_00024;751134201;24;;Rue de la Glacière;75013;75113;Paris 13e Arrondissement;;;651922.24;6859701.73;2.345012;48.835574;parcelle;;;PARIS;RUE DE LA GLACIERE;commune;commune;1;;48.835574, 2.345012
75113_4201_00027;751134201;27;;Rue de la Glacière;75013;75113;Paris 13e Arrondissement;;;651915.1;6859522.54;2.344935;48.833962;parcelle;;;PARIS;RUE DE LA GLACIERE;commune;commune;1;;48.833962, 2.344935
75113_4201_00036;751134201;36;;Rue de la Glacière;75013;75113;Paris 13e Arrondissement;;;651897.29;6859517.12;2.344693;48.833912;parcelle;;;PARIS;RUE DE LA GLACIERE;commune;commune;1;;48.833912, 2.344693
75113_4201_00043;751134201;43;;Rue de la Glacière;75013;75113;Paris 13e Arrondissement;;;651898.52;6859400.58;2.344723;48.832864;parcelle;;;PARIS;RUE DE LA GLACIERE;commune;commune;1;;48.832864, 2.344723
75113_4201_00049;751134201;49;;Rue de la Glacière;75013;75113;Paris 13e Arrondissement;;;651893.44;6859362.93;2.344658;48.832525;parcelle;;;PARIS;RUE DE LA GLACIERE;commune;commune;1;;48.832525, 2.344658
75113_4201_00053;751134201;53;;Rue de la Glacière;75013;75113;Paris 13e Arrondissement;;;651889.38;6859333.38;2.344606;48.832259;parcelle;;;PARIS;RUE DE LA GLACIERE;commune;commune;1;;48.832259, 2.344606
75113_4201_00055;751134201;55;;Rue de la Glacière;75013;75113;Paris 13e Arrondissement;;;651887.73;6859321.28;2.344585;48.83215;parcelle;;;PARIS;RUE DE LA GLACIERE;commune;commune;1;;48.83215, 2.344585
75113_4201_00015_b;751134201;15;b;Rue de la Glacière;75013;75113;Paris 13e Arrondissement;;;651932.96;6859676.4;2.345161;48.835347;parcelle;;;PARIS;RUE DE LA GLACIERE;commune;commune;1;;48.835347, 2.345161
75113_4649_00050;751134649;50;;Boulevard de l'Hôpital;75013;75113;Paris 13e Arrondissement;;;653067.31;6860047.61;2.360573;48.838769;parcelle;;;PARIS;BOULEVARD DE L HOPITAL;commune;commune;1;;48.838769, 2.360573
75113_4649_00086;751134649;86;;Boulevard de l'Hôpital;75013;75113;Paris 13e Arrondissement;;;652980.23;6859873.19;2.359406;48.837194;parcelle;;;PARIS;BOULEVARD DE L HOPITAL;commune;commune;1;;48.837194, 2.359406
75113_4649_00099;751134649;99;;Boulevard de l'Hôpital;75013;75113;Paris 13e Arrondissement;;;653039.76;6859890.61;2.360215;48.837355;parcelle;;;PARIS;BOULEVARD DE L HOPITAL;commune;commune;1;;48.837355, 2.360215
75113_4649_00102;751134649;102;;Boulevard de l'Hôpital;75013;75113;Paris 13e Arrondissement;;;652926.65;6859765.54;2.358688;48.836222;parcelle;;;PARIS;BOULEVARD DE L HOPITAL;commune;commune;1;;48.836222, 2.358688
75113_4649_00116;751134649;116;;Boulevard de l'Hôpital;75013;75113;Paris 13e Arrondissement;;;652856.36;6859651.91;2.357743;48.835195;parcelle;;;PARIS;BOULEVARD DE L HOPITAL;commune;commune;1;;48.835195, 2.357743
75113_4649_00130;751134649;130;;Boulevard de l'Hôpital;75013;75113;Paris 13e Arrondissement;;;652818.83;6859550.69;2.357243;48.834282;parcelle;;;PARIS;BOULEVARD DE L HOPITAL;commune;commune;1;;48.834282, 2.357243
75113_4649_00132;751134649;132;;Boulevard de l'Hôpital;75013;75113;Paris 13e Arrondissement;;;652811.22;6859535.41;2.357141;48.834144;parcelle;;;PARIS;BOULEVARD DE L HOPITAL;commune;commune;1;;48.834144, 2.357141
75113_4649_00171;751134649;171;;Boulevard de l'Hôpital;75013;75113;Paris 13e Arrondissement;;;652753.74;6859318.93;2.356382;48.832193;parcelle;;;PARIS;BOULEVARD DE L HOPITAL;commune;commune;1;;48.832193, 2.356382
75113_2984_00001;751132984;1;;Rue Duméril;75013;75113;Paris 13e Arrondissement;;;652839.97;6859938.15;2.357488;48.837768;parcelle;;;PARIS;RUE DUMERIL;commune;commune;1;;48.837768, 2.357488
75113_2984_00033;751132984;33;;Rue Duméril;75013;75113;Paris 13e Arrondissement;;;652918.51;6859766.16;2.358577;48.836227;parcelle;;;PARIS;RUE DUMERIL;commune;commune;1;;48.836227, 2.358577
75113_2355_00010;751132355;10;;Rue Corvisart;75013;75113;Paris 13e Arrondissement;;;652016.48;6859505.35;2.346318;48.833815;parcelle;;;PARIS;RUE CORVISART;commune;commune;1;;48.833815, 2.346318
75113_2355_00016;751132355;16;;Rue Corvisart;75013;75113;Paris 13e Arrondissement;;;652034.36;6859448.83;2.346568;48.833308;parcelle;;;PARIS;RUE CORVISART;commune;commune;1;;48.833308, 2.346568
75113_4209_00037;751134209;37;;Avenue des Gobelins;75013;75113;Paris 13e Arrondissement;;;652498.93;6859721.55;2.352866;48.835795;parcelle;;;PARIS;AVENUE DES GOBELINS;commune;commune;1;;48.835795, 2.352866
75113_4209_00044;751134209;44;;Avenue des Gobelins;75013;75113;Paris 13e Arrondissement;;;652518.65;6859574.72;2.353151;48.834476;parcelle;;;PARIS;AVENUE DES GOBELINS;commune;commune;1;;48.834476, 2.353151
75113_4209_00031_a;751134209;31;a;Avenue des Gobelins;75013;75113;Paris 13e Arrondissement;;;652488.52;6859803.81;2.352715;48.836534;parcelle;;;PARIS;AVENUE DES GOBELINS;commune;commune;1;;48.836534, 2.352715
75113_4209_00066_b;751134209;66;b;Avenue des Gobelins;75013;75113;Paris 13e Arrondissement;;;652598.09;6859397.26;2.354253;48.832886;parcelle;;;PARIS;AVENUE DES GOBELINS;commune;commune;1;;48.832886, 2.354253
75113_9928_00003;751139928;3;;Rue Vulpian;75013;75113;Paris 13e Arrondissement;;;652051.5;6859329.04;2.346815;48.832232;parcelle;;;PARIS;RUE VULPIAN;commune;commune;1;;48.832232, 2.346815
75113_9928_00018;751139928;18;;Rue Vulpian;75013;75113;Paris 13e Arrondissement;;;652013.56;6859259.52;2.346306;48.831604;parcelle;;;PARIS;RUE VULPIAN;commune;commune;1;;48.831604, 2.346306
75113_6973_00021;751136973;21;;Rue Oudry;75013;75113;Paris 13e Arrondissement;;;652724.79;6859837.35;2.35593;48.836853;parcelle;;;PARIS;RUE OUDRY;commune;commune;1;;48.836853, 2.35593
75113_6973_00027;751136973;27;;Rue Oudry;75013;75113;Paris 13e Arrondissement;;;652709.23;6859856.38;2.355716;48.837023;parcelle;;;PARIS;RUE OUDRY;commune;commune;1;;48.837023, 2.355716
75113_0656_00003;751130656;3;;Rue du Banquier;75013;75113;Paris 13e Arrondissement;;;652866.22;6859762.47;2.357865;48.83619;parcelle;;;PARIS;RUE DU BANQUIER;commune;commune;1;;48.83619, 2.357865
75113_0656_00008;751130656;8;;Rue du Banquier;75013;75113;Paris 13e Arrondissement;;;652840.95;6859760.56;2.357521;48.836171;parcelle;;;PARIS;RUE DU BANQUIER;commune;commune;1;;48.836171, 2.357521
75113_0656_00015;751130656;15;;Rue du Banquier;75013;75113;Paris 13e Arrondissement;;;652781.15;6859710.01;2.356712;48.835712;parcelle;;;PARIS;RUE DU BANQUIER;commune;commune;1;;48.835712, 2.356712
75113_0656_00034;751130656;34;;Rue du Banquier;75013;75113;Paris 13e Arrondissement;;;652641.91;6859630.53;2.354824;48.834987;parcelle;;;PARIS;RUE DU BANQUIER;commune;commune;1;;48.834987, 2.354824
75113_0656_00035;751130656;35;;Rue du Banquier;75013;75113;Paris 13e Arrondissement;;;652602.44;6859588.04;2.354291;48.834602;parcelle;;;PARIS;RUE DU BANQUIER;commune;commune;1;;48.834602, 2.354291
75113_0656_00021_z;751130656;21;z;Rue du Banquier;75013;75113;Paris 13e Arrondissement;;;652731;6859681.4;2.356032;48.835451;parcelle;;;PARIS;RUE DU BANQUIER;commune;commune;1;;48.835451, 2.356032
75113_0656_00020_a;751130656;20;a;Rue du Banquier;75013;75113;Paris 13e Arrondissement;;;652710.28;6859714.59;2.355746;48.835748;parcelle;;;PARIS;RUE DU BANQUIER;commune;commune;1;;48.835748, 2.355746
75113_8115_00009;751138115;9;;Rue de la Reine Blanche;75013;75113;Paris 13e Arrondissement;;;652622.36;6859842.41;2.354534;48.836891;parcelle;;;PARIS;RUE DE LA REINE BLANCHE;commune;commune;1;;48.836891, 2.354534
75113_8115_00021_b;751138115;21;b;Rue de la Reine Blanche;75013;75113;Paris 13e Arrondissement;;;652549.84;6859779.95;2.353553;48.836324;parcelle;;;PARIS;RUE DE LA REINE BLANCHE;commune;commune;1;;48.836324, 2.353553
75113_8424_00009;751138424;9;;Rue Rubens;75013;75113;Paris 13e Arrondissement;;;652698.36;6859567.24;2.3556;48.834422;parcelle;;;PARIS;RUE RUBENS;commune;commune;1;;48.834422, 2.3556
75113_8424_00013;751138424;13;;Rue Rubens;75013;75113;Paris 13e Arrondissement;;;652715.27;6859543.97;2.355833;48.834214;parcelle;;;PARIS;RUE RUBENS;commune;commune;1;;48.834214, 2.355833
75113_8424_00018;751138424;18;;Rue Rubens;75013;75113;Paris 13e Arrondissement;;;652725.18;6859498.19;2.355973;48.833803;parcelle;;;PARIS;RUE RUBENS;commune;commune;1;;48.833803, 2.355973
75113_8424_00020;751138424;20;;Rue Rubens;75013;75113;Paris 13e Arrondissement;;;652736.3;6859484.87;2.356126;48.833684;parcelle;;;PARIS;RUE RUBENS;commune;commune;1;;48.833684, 2.356126
75113_8690_00001;751138690;1;;Boulevard Saint-Marcel;75013;75113;Paris 13e Arrondissement;;;653100.84;6860128.41;2.361021;48.839498;parcelle;;;PARIS;BOULEVARD SAINT MARCEL;commune;commune;1;;48.839498, 2.361021
75113_8690_00051;751138690;51;;Boulevard Saint-Marcel;75013;75113;Paris 13e Arrondissement;;;652714.89;6859946.18;2.355783;48.837831;parcelle;;;PARIS;BOULEVARD SAINT MARCEL;commune;commune;1;;48.837831, 2.355783
75113_2416_00001;751132416;1;;Rue Coypel;75013;75113;Paris 13e Arrondissement;;;652728.17;6859423.78;2.356022;48.833134;parcelle;;;PARIS;RUE COYPEL;commune;commune;1;;48.833134, 2.356022
75113_2416_00005;751132416;5;;Rue Coypel;75013;75113;Paris 13e Arrondissement;;;652705.86;6859424.29;2.355718;48.833137;parcelle;;;PARIS;RUE COYPEL;commune;commune;1;;48.833137, 2.355718
75113_2416_00014;751132416;14;;Rue Coypel;75013;75113;Paris 13e Arrondissement;;;652661.65;6859441.22;2.355114;48.833286;parcelle;;;PARIS;RUE COYPEL;commune;commune;1;;48.833286, 2.355114
75113_7495_00008;751137495;8;;Rue Pirandello;75013;75113;Paris 13e Arrondissement;;;652792.14;6859851.03;2.356846;48.836981;parcelle;;;PARIS;RUE PIRANDELLO;commune;commune;1;;48.836981, 2.356846
75113_7495_00013;751137495;13;;Rue Pirandello;75013;75113;Paris 13e Arrondissement;;;652743.67;6859803.28;2.356191;48.836548;parcelle;;;PARIS;RUE PIRANDELLO;commune;commune;1;;48.836548, 2.356191
75113_5125_00010;751135125;10;;Rue du Jura;75013;75113;Paris 13e Arrondissement;;;652727.73;6859882.69;2.355965;48.837261;parcelle;;;PARIS;RUE DU JURA;commune;commune;1;;48.837261, 2.355965
75113_5125_00013;751135125;13;;Rue du Jura;75013;75113;Paris 13e Arrondissement;;;652742.08;6859878.9;2.356161;48.837228;parcelle;;;PARIS;RUE DU JURA;commune;commune;1;;48.837228, 2.356161
75113_2469_00035;751132469;35;;Rue de Croulebarbe;75013;75113;Paris 13e Arrondissement;;;652367;6859370.69;2.351108;48.83263;parcelle;;;PARIS;RUE DE CROULEBARBE;commune;commune;1;;48.83263, 2.351108
75113_2469_00036;751132469;36;;Rue de Croulebarbe;75013;75113;Paris 13e Arrondissement;;;652328.41;6859364.45;2.350583;48.832571;parcelle;;;PARIS;RUE DE CROULEBARBE;commune;commune;1;;48.832571, 2.350583
75113_2469_00039;751132469;39;;Rue de Croulebarbe;75013;75113;Paris 13e Arrondissement;;;652335.71;6859341.48;2.350685;48.832365;parcelle;;;PARIS;RUE DE CROULEBARBE;commune;commune;1;;48.832365, 2.350685
75113_2469_00065;751132469;65;;Rue de Croulebarbe;75013;75113;Paris 13e Arrondissement;;;652191.21;6859205.57;2.348732;48.831132;parcelle;;;PARIS;RUE DE CROULEBARBE;commune;commune;1;;48.831132, 2.348732
75113_0875_00006;751130875;6;;Rue Berbier du Mets;75013;75113;Paris 13e Arrondissement;;;652418.19;6859499.37;2.351791;48.833791;parcelle;;;PARIS;RUE BERBIER DU METS;commune;commune;1;;48.833791, 2.351791
75113_0875_00008;751130875;8;;Rue Berbier du Mets;75013;75113;Paris 13e Arrondissement;;;652412.01;6859532.67;2.351703;48.83409;parcelle;;;PARIS;RUE BERBIER DU METS;commune;commune;1;;48.83409, 2.351703
75113_9173_00014;751139173;14;;Rue des Tanneries;75013;75113;Paris 13e Arrondissement;;;651978.28;6859483.76;2.3458;48.833618;parcelle;;;PARIS;RUE DES TANNERIES;commune;commune;1;;48.833618, 2.3458
75113_9173_00018;751139173;18;;Rue des Tanneries;75013;75113;Paris 13e Arrondissement;;;651981.16;6859468.28;2.345841;48.833479;parcelle;;;PARIS;RUE DES TANNERIES;commune;commune;1;;48.833479, 2.345841
75113_9173_00021;751139173;21;;Rue des Tanneries;75013;75113;Paris 13e Arrondissement;;;652006.79;6859417.14;2.346196;48.833021;parcelle;;;PARIS;RUE DES TANNERIES;commune;commune;1;;48.833021, 2.346196
75113_9173_00023;751139173;23;;Rue des Tanneries;75013;75113;Paris 13e Arrondissement;;;652012.46;6859401.42;2.346275;48.83288;parcelle;;;PARIS;RUE DES TANNERIES;commune;commune;1;;48.83288, 2.346275
75113_9173_00026;751139173;26;;Rue des Tanneries;75013;75113;Paris 13e Arrondissement;;;651999.69;6859410.64;2.3461;48.832962;parcelle;;;PARIS;RUE DES TANNERIES;commune;commune;1;;48.832962, 2.3461
75113_4212_00004;751134212;4;;Villa des Gobelins;75013;75113;Paris 13e Arrondissement;;;652523.21;6859495.73;2.353222;48.833766;parcelle;;;PARIS;VILLA DES GOBELINS;commune;commune;1;;48.833766, 2.353222
75113_4212_00005;751134212;5;;Villa des Gobelins;75013;75113;Paris 13e Arrondissement;;;652518.16;6859478.87;2.353155;48.833614;parcelle;;;PARIS;VILLA DES GOBELINS;commune;commune;1;;48.833614, 2.353155
75113_9940_00019;751139940;19;;Rue des Wallons;75013;75113;Paris 13e Arrondissement;;;652946.4;6859991.77;2.358932;48.838258;parcelle;;;PARIS;RUE DES WALLONS;commune;commune;1;;48.838258, 2.358932
75113_9940_00022;751139940;22;;Rue des Wallons;75013;75113;Paris 13e Arrondissement;;;652931.22;6860003.13;2.358724;48.838359;parcelle;;;PARIS;RUE DES WALLONS;commune;commune;1;;48.838359, 2.358724
75113_9940_00025;751139940;25;;Rue des Wallons;75013;75113;Paris 13e Arrondissement;;;652921.03;6859977.52;2.358588;48.838128;parcelle;;;PARIS;RUE DES WALLONS;commune;commune;1;;48.838128, 2.358588
75113_9940_00018_b;751139940;18;b;Rue des Wallons;75013;75113;Paris 13e Arrondissement;;;652967.35;6860022.74;2.359214;48.838538;parcelle;;;PARIS;RUE DES WALLONS;commune;commune;1;;48.838538, 2.359214
75113_4755_00004;751134755;4;;Place d'Italie;75013;75113;Paris 13e Arrondissement;;;652622.13;6859302.55;2.354591;48.832036;parcelle;;;PARIS;PLACE D ITALIE;commune;commune;1;;48.832036, 2.354591
75113_5433_00005;751135433;5;;Rue Le Brun;75013;75113;Paris 13e Arrondissement;;;652677.04;6859886.55;2.355274;48.837292;parcelle;;;PARIS;RUE LE BRUN;commune;commune;1;;48.837292, 2.355274
75113_5433_00007;751135433;7;;Rue Le Brun;75013;75113;Paris 13e Arrondissement;;;652675.43;6859879.11;2.355253;48.837225;parcelle;;;PARIS;RUE LE BRUN;commune;commune;1;;48.837225, 2.355253
75113_5433_00012;751135433;12;;Rue Le Brun;75013;75113;Paris 13e Arrondissement;;;652647.56;6859827.86;2.354879;48.836762;parcelle;;;PARIS;RUE LE BRUN;commune;commune;1;;48.836762, 2.354879
75113_5433_00015;751135433;15;;Rue Le Brun;75013;75113;Paris 13e Arrondissement;;;652659.87;6859806.85;2.355049;48.836574;parcelle;;;PARIS;RUE LE BRUN;commune;commune;1;;48.836574, 2.355049
75113_5433_00038;751135433;38;;Rue Le Brun;75013;75113;Paris 13e Arrondissement;;;652565.26;6859672.97;2.353775;48.835363;parcelle;;;PARIS;RUE LE BRUN;commune;commune;1;;48.835363, 2.353775
75113_5061_00007;751135061;7;;Rue Jules Breton;75013;75113;Paris 13e Arrondissement;;;652876.61;6859993.12;2.357981;48.838265;parcelle;;;PARIS;RUE JULES BRETON;commune;commune;1;;48.838265, 2.357981
75113_7741_00004;751137741;4;;Cité de Port-Royal;75013;75113;Paris 13e Arrondissement;;;651860.05;6859876.82;2.344145;48.837144;parcelle;;;PARIS;CITE DE PORT ROYAL;commune;commune;1;;48.837144, 2.344145
75113_0028_00004;751130028;4;;Rue Abel Hovelacque;75013;75113;Paris 13e Arrondissement;;;652562.45;6859429.13;2.353764;48.83317;parcelle;;;PARIS;RUE ABEL HOVELACQUE;commune;commune;1;;48.83317, 2.353764
75113_0028_00007_b;751130028;7;b;Rue Abel Hovelacque;75013;75113;Paris 13e Arrondissement;;;652541.1;6859385.72;2.353478;48.832778;parcelle;;;PARIS;RUE ABEL HOVELACQUE;commune;commune;1;;48.832778, 2.353478
75113_1313_00069;751131313;69;;Rue Broca;75013;75113;Paris 13e Arrondissement;;;652069.84;6859851.06;2.347006;48.836928;parcelle;;;PARIS;RUE BROCA;commune;commune;1;;48.836928, 2.347006
75113_1313_00071;751131313;71;;Rue Broca;75013;75113;Paris 13e Arrondissement;;;652073.92;6859837.91;2.347063;48.83681;parcelle;;;PARIS;RUE BROCA;commune;commune;1;;48.83681, 2.347063
75113_1313_00080;751131313;80;;Rue Broca;75013;75113;Paris 13e Arrondissement;;;652042.64;6859774.67;2.346644;48.836239;parcelle;;;PARIS;RUE BROCA;commune;commune;1;;48.836239, 2.346644
75113_1313_00093;751131313;93;;Rue Broca;75013;75113;Paris 13e Arrondissement;;;652043.22;6859711.29;2.346659;48.835669;parcelle;;;PARIS;RUE BROCA;commune;commune;1;;48.835669, 2.346659
75113_7831_00003;751137831;3;;Rue Primatice;75013;75113;Paris 13e Arrondissement;;;652701.88;6859503.28;2.355655;48.833847;parcelle;;;PARIS;RUE PRIMATICE;commune;commune;1;;48.833847, 2.355655
75113_3219_00011;751133219;11;;Rue Emile Deslandres;75013;75113;Paris 13e Arrondissement;;;652263.77;6859591.82;2.349677;48.834611;parcelle;;;PARIS;RUE EMILE DESLANDRES;commune;commune;1;;48.834611, 2.349677
75113_8147_00001;751138147;1;;Rue René Panhard;75013;75113;Paris 13e Arrondissement;;;652975.66;6860042.58;2.359325;48.838717;parcelle;;;PARIS;RUE RENE PANHARD;commune;commune;1;;48.838717, 2.359325
75113_9702_00010;751139702;10;;Rue Véronèse;75013;75113;Paris 13e Arrondissement;;;652633.42;6859498.27;2.354723;48.833797;parcelle;;;PARIS;RUE VERONESE;commune;commune;1;;48.833797, 2.354723
75113_7383_00002;751137383;2;;Rue Philippe de Champagne;75013;75113;Paris 13e Arrondissement;;;652727.61;6859400.65;2.356017;48.832926;parcelle;;;PARIS;RUE PHILIPPE DE CHAMPAGNE;commune;commune;1;;48.832926, 2.356017
75113_7383_00003;751137383;3;;Rue Philippe de Champagne;75013;75113;Paris 13e Arrondissement;;;652703.11;6859384.95;2.355685;48.832783;parcelle;;;PARIS;RUE PHILIPPE DE CHAMPAGNE;commune;commune;1;;48.832783, 2.355685
75113_3128_00001;751133128;1;;Rue Edmond Gondinet;75013;75113;Paris 13e Arrondissement;;;652140.35;6859170.63;2.348043;48.830814;parcelle;;;PARIS;RUE EDMOND GONDINET;commune;commune;1;;48.830814, 2.348043
75113_8633_00002;751138633;2;;Rue Saint-Hippolyte;75013;75113;Paris 13e Arrondissement;;;652164.03;6859754.1;2.3483;48.836063;parcelle;;;PARIS;RUE SAINT HIPPOLYTE;commune;commune;1;;48.836063, 2.3483
75113_8633_00003;751138633;3;;Rue Saint-Hippolyte;75013;75113;Paris 13e Arrondissement;;;652141.83;6859741.72;2.347999;48.83595;parcelle;;;PARIS;RUE SAINT HIPPOLYTE;commune;commune;1;;48.83595, 2.347999
75113_8633_00020;751138633;20;;Rue Saint-Hippolyte;75013;75113;Paris 13e Arrondissement;;;652070.35;6859761.1;2.347023;48.836119;parcelle;;;PARIS;RUE SAINT HIPPOLYTE;commune;commune;1;;48.836119, 2.347023
75113_8633_00021;751138633;21;;Rue Saint-Hippolyte;75013;75113;Paris 13e Arrondissement;;;651997.81;6859759.48;2.346035;48.836099;parcelle;;;PARIS;RUE SAINT HIPPOLYTE;commune;commune;1;;48.836099, 2.346035
75113_8086_00007;751138086;7;;Rue des Reculettes;75013;75113;Paris 13e Arrondissement;;;652402.31;6859299.68;2.351597;48.831994;parcelle;;;PARIS;RUE DES RECULETTES;commune;commune;1;;48.831994, 2.351597
75113_8086_00022;751138086;22;;Rue des Reculettes;75013;75113;Paris 13e Arrondissement;;;652341.2;6859277.61;2.350767;48.831791;parcelle;;;PARIS;RUE DES RECULETTES;commune;commune;1;;48.831791, 2.350767
75113_8086_00025;751138086;25;;Rue des Reculettes;75013;75113;Paris 13e Arrondissement;;;652328.25;6859247.03;2.350594;48.831515;parcelle;;;PARIS;RUE DES RECULETTES;commune;commune;1;;48.831515, 2.350594
75113_0132_00008;751130132;8;;Square Albin Cachot;75013;75113;Paris 13e Arrondissement;;;651780.97;6859406.34;2.343121;48.832907;parcelle;;;PARIS;SQUARE ALBIN CACHOT;commune;commune;1;;48.832907, 2.343121
75113_0132_00009;751130132;9;;Square Albin Cachot;75013;75113;Paris 13e Arrondissement;;;651808.93;6859405.88;2.343502;48.832905;parcelle;;;
